NOAA 16 DEB
1 41248U 00055EY  18231.34160032  .00000515  00000-0  41092-3 0  9993
2 41248  98.9298 275.7444 0095156  89.0447 272.1615 13.93262736133369
NOAA 16 DEB
1 41249U 00055EZ  18231.09173205  .00000742  00000-0  33924-3 0  9999
2 41249  98.9020 324.9310 0050711 116.6061 244.0325 14.23891889136123
NOAA 16 DEB
1 41250U 00055FA  18230.69723643 +.00000790 +00000-0 +47597-3 0  9997
2 41250 099.0608 314.6288 0052205 094.7655 265.9478 14.08981873137559
NOAA 16 DEB
1 41251U 00055FB  18231.45254179  .00000671  00000-0  42231-3 0  9994
2 41251  99.0018 307.9245 0060160 330.9179  28.8643 14.06924244137296
NOAA 16 DEB
1 41252U 00055FC  18230.99129572  .00000057  00000-0  65950-4 0  9993
2 41252  98.9356 290.3608 0067348  59.7098 301.0708 14.00339195137926
NOAA 16 DEB
1 41253U 00055FD  18230.51110527  .00000907  00000-0  38837-3 0  9999
2 41253  98.9799 335.6359 0068284 148.6087 211.9196 14.26166378136298
NOAA 16 DEB
1 41254U 00055FE  18231.08398099  .00001778  00000-0  82949-3 0  9995
2 41254  99.0792 337.0037 0041449 194.3610 165.6391 14.21321704135727
NOAA 16 DEB
1 41255U 00055FF  18231.46010942  .00000524  00000-0  24727-3 0  9994
2 41255  98.7759 312.0948 0049934 111.5587 249.0924 14.23412946140166
NOAA 16 DEB
1 41256U 00055FG  18230.49870710 +.00000992 +00000-0 +50158-3 0  9990
2 41256 099.0716 332.5065 0026571 143.1390 217.1617 14.18389737135766
NOAA 16 DEB
1 41257U 00055FH  18231.05995100  .00001104  00000-0  60716-3 0  9992
2 41257  98.9621 313.2220 0029826 267.4395  92.3362 14.13595667135665
NOAA 16 DEB
1 41258U 00055FJ  18230.72259576  .00000923  00000-0  40198-3 0  9996
2 41258  98.9509 331.7047 0064859 149.3152 211.1845 14.25366548136336
NOAA 16 DEB
1 41259U 00055FK  18226.24607109 +.00001343 +00000-0 +46306-3 0  9992
2 41259 098.8392 327.7937 0100611 053.7540 307.2892 14.34783474138865
NOAA 16 DEB
1 41260U 00055FL  18231.17005985  .00000317  00000-0  20962-3 0  9996
2 41260  98.9311 305.0135 0024437 327.3581  32.6077 14.08547547138554
NOAA 16 DEB
1 41261U 00055FM  18230.41237284 +.00000041 +00000-0 +51917-4 0  9991
2 41261 098.8323 287.3238 0042092 053.3315 307.1710 14.04339227136867
NOAA 16 DEB
1 41262U 00055FN  18231.32458117  .00000184  00000-0  15347-3 0  9997
2 41262  98.8717 279.6278 0064862  61.8856 298.8844 13.99130130137697
NOAA 16 DEB
1 41263U 00055FP  18231.36261088  .00000403  00000-0  32260-3 0  9998
2 41263  98.9373 279.4148 0086877  79.3089 281.7841 13.94577768135258
NOAA 16 DEB
1 41264U 00055FQ  18230.42109447 +.00000434 +00000-0 +25913-3 0  9996
2 41264 098.8224 299.0110 0002102 077.0616 283.0790 14.12358591136868
NOAA 16 DEB
1 41265U 00055FR  18230.60419044  .00000690  00000-0  44380-3 0  9997
2 41265  98.7734 282.5025 0035370  38.5738 321.7948 14.06092717136443
NOAA 16 DEB
1 41266U 00055FS  18231.00193056  .00000459  00000-0  27280-3 0  9998
2 41266  98.8442 301.8029 0003086 259.7971 100.2853 14.12352357136952
NOAA 16 DEB
1 41267U 00055FT  18230.70111831 +.00000751 +00000-0 +33209-3 0  9999
2 41267 098.7875 314.5478 0063228 132.5704 228.0835 14.25099106139447
NOAA 16 DEB
1 41268U 00055FU  18230.98304801  .00000452  00000-0  30047-3 0  9996
2 41268  98.9769 305.1774 0032495  58.6580 301.7761 14.06151538136530
NOAA 16 DEB
1 41269U 00055FV  18231.39491942  .00000598  00000-0  38326-3 0  9995
2 41269  98.9765 304.8089 0030022  40.9851 319.3566 14.06962133136798
NOAA 16 DEB
1 41270U 00055FW  18231.07293279  .00000671  00000-0  42916-3 0  9997
2 41270  99.0096 308.3712 0033483  64.3803 296.0819 14.06639287136593
NOAA 16 DEB
1 41271U 00055FX  18230.20056749  .00001064  00000-0  41612-3 0  9990
2 41271  98.7959 321.2107 0070775  87.5777 273.3505 14.30252061139931
NOAA 16 DEB
1 41272U 00055FY  18231.42577971  .00000518  00000-0  32936-3 0  9993
2 41272  98.8938 299.5412 0030364 324.2279  35.6855 14.07931193136538
NOAA 16 DEB
1 41273U 00055FZ  18230.49795720  .00000804  00000-0  33309-3 0  9997
2 41273  98.8781 328.2294 0068357 111.2559 249.5940 14.28139933138618
NOAA 16 DEB
1 41274U 00055GA  18230.02460435  .00001051  00000-0  44669-3 0  9995
2 41274  98.8127 316.9457 0069166 148.5886 211.9453 14.26101633138125
NOAA 16 DEB
1 41275U 00055GB  18231.38787588  .00000380  00000-0  23739-3 0  9996
2 41275  98.8294 297.3147 0023503  55.2791 305.0589 14.10486706136812
NOAA 16 DEB
1 41276U 00055GC  18231.38357982  .00000322  00000-0  20557-3 0  9999
2 41276  98.8426 299.0340 0014041  34.4787 325.7292 14.10332083136879
NOAA 16 DEB
1 41277U 00055GD  18230.72259516 +.00000764 +00000-0 +36691-3 0  9997
2 41277 098.9038 320.8654 0051138 163.8896 196.3921 14.21202457137805
NOAA 16 DEB
1 41278U 00055GE  18231.02111841  .00001204  00000-0  53810-3 0  9992
2 41278  98.8591 318.1420 0044251 110.9166 249.6757 14.24053188137897
NOAA 16 DEB
1 41279U 00055GF  18231.40644546  .00000577  00000-0  38177-3 0  9999
2 41279  98.9412 300.8888 0036370  51.9506 308.4934 14.05206364136167
NOAA 16 DEB
1 41280U 00055GG  18227.92522461  .00000466  00000-0  31324-3 0  9998
2 41280  98.7809 279.9181 0032932  34.4992 325.8304 14.05190644135889
NOAA 16 DEB
1 41281U 00055GH  18228.39197132 +.00001118 +00000-0 +71286-3 0  9990
2 41281 098.8994 291.3575 0038648 038.2276 322.1621 14.05273604135686
NOAA 16 DEB
1 41282U 00055GJ  18231.37530039  .00000158  00000-0  13867-3 0  9994
2 41282  98.8749 279.7780 0070088  45.9986 314.6926 13.97880990135440
NOAA 16 DEB
1 41283U 00055GK  18230.56569395  .00000369  00000-0  28658-3 0  9990
2 41283  98.8248 275.6534 0069436  51.8123 308.9267 13.97342542136217
NOAA 16 DEB
1 41284U 00055GL  18231.05142334  .00000332  00000-0  27739-3 0  9995
2 41284  98.8383 268.8013 0097221  91.9911 269.2387 13.92763562134884
NOAA 16 DEB
1 41285U 00055GM  18231.40374447  .00000586  00000-0  34207-3 0  9996
2 41285  98.8596 302.5795 0060074 256.5902 102.8568 14.11454922136883
NOAA 16 DEB
1 41286U 00055GN  18231.47141951  .00003419  00000-0  15069-2 0  9998
2 41286  98.9940 324.0089 0074077 198.5927 161.2541 14.22604857137756
NOAA 16 DEB
1 41287U 00055GP  18230.99787556  .00000280  00000-0  20175-3 0  9990
2 41287  98.9014 292.2533 0039719  34.5880 325.7859 14.04396181135968
NOAA 16 DEB
1 41288U 00055GQ  18230.45876508  .00000418  00000-0  28083-3 0  9997
2 41288  98.9572 299.8476 0038931  60.8768 299.6288 14.05832305136127
NOAA 16 DEB
1 41289U 00055GR  18229.42184022  .00000088  00000-0  81302-4 0  9993
2 41289  98.8467 288.4192 0039600  58.4936 302.0091 14.04785081135861
NOAA 16 DEB
1 41290U 00055GS  18230.12057501  .00000965  00000-0  48173-3 0  9997
2 41290  98.9883 324.5071 0031410 160.5806 199.6573 14.19022788137261
NOAA 16 DEB
1 41291U 00055GT  18229.21489799 +.00000789 +00000-0 +35353-3 0  9994
2 41291 098.9397 328.0478 0054508 130.9499 229.6415 14.24633372140675
NOAA 16 DEB
1 41292U 00055GU  18229.21134362  .00000726  00000-0  33168-3 0  9991
2 41292  98.9108 324.0847 0052982 110.9902 249.6956 14.23923148137921
NOAA 16 DEB
1 41293U 00055GV  18231.14729569  .00000364  00000-0  24621-3 0  9998
2 41293  98.9305 297.8162 0032338  42.7072 317.6602 14.06337266136251
NOAA 16 DEB
1 41294U 00055GW  18231.17794864  .00000925  00000-0  46762-3 0  9995
2 41294  98.8598 309.9739 0026267 117.8058 242.5784 14.18471690137769
NOAA 16 DEB
1 41295U 00055GX  18229.95042043 +.00000395 +00000-0 +25859-3 0  9999
2 41295 098.8392 292.8395 0027216 038.7948 321.5169 14.07652504136345
NOAA 16 DEB
1 41296U 00055GY  18231.43305233  .00000289  00000-0  19788-3 0  9995
2 41296  98.9045 300.5226 0027936 343.2647  16.7597 14.07252333135715
NOAA 16 DEB
1 41297U 00055GZ  18231.43308417  .00000069  00000-0  76502-4 0  9997
2 41297  98.9867 292.5172 0073088  88.2035 272.7497 13.98273760134969
NOAA 16 DEB
1 41298U 00055HA  18229.64233880 +.00000589 +00000-0 +34855-3 0  9990
2 41298 098.8761 300.8249 0059074 269.7948 089.6453 14.10761977135884
NOAA 16 DEB
1 41299U 00055HB  18231.39656476  .00000571  00000-0  35674-3 0  9997
2 41299  98.8767 299.0062 0051327 291.6511  67.9197 14.08108927135810
NOAA 16 DEB
1 41300U 00055HC  18230.41165400 +.00000127 +00000-0 +10795-3 0  9998
2 41300 098.8843 291.6094 0046262 007.6908 352.4958 14.03495183135172
NOAA 16 DEB
1 41301U 00055HD  18231.36636547  .00000488  00000-0  31342-3 0  9990
2 41301  98.8184 290.8244 0025490  37.2360 323.0570 14.07623428135960
NOAA 16 DEB
1 41302U 00055HE  18230.65661079  .00000214  00000-0  15031-3 0  9994
2 41302  98.8825 298.6958 0025385  60.5522 299.8176 14.08309361135727
NOAA 16 DEB
1 41303U 00055HF  18230.56247477 +.00001350 +00000-0 +43997-3 0  9991
2 41303 098.9997 353.9165 0104929 092.8404 268.4796 14.37329333138303
NOAA 16 DEB
1 41304U 00055HG  18230.46047188  .00000611  00000-0  38158-3 0  9990
2 41304  99.0432 313.6733 0050981  98.3818 262.3134 14.07882367135823
NOAA 16 DEB
1 41305U 00055HH  18231.33551343  .00000292  00000-0  21429-3 0  9999
2 41305  98.7852 279.8698 0041640  49.7231 310.7564 14.02805542135369
NOAA 16 DEB
1 41306U 00055HJ  18231.11780208  .00000992  00000-0  38369-3 0  9998
2 41306  98.8926 333.5360 0081951 107.7698 253.2447 14.30555943138089
NOAA 16 DEB
1 41307U 00055HK  18230.07826374 +.00000961 +00000-0 +51877-3 0  9993
2 41307 098.9318 311.8233 0023791 245.8346 114.0339 14.14962846136242
INTELSAT 29E
1 41308U 16004A   18231.22911885 -.00000302  00000-0  00000+0 0  9993
2 41308   0.0583 271.3351 0001670 232.5645 216.1002  1.00270483  9496
ARIANE 5 R/B
1 41309U 16004B   18230.97758420  .00001002  00000-0  59240-3 0  9990
2 41309   0.5406 236.7691 7246443 273.3636 285.9470  2.31143240 21545
EUTE 9B
1 41310U 16005A   18231.06561380  .00000042  00000-0  00000+0 0  9990
2 41310   0.0229  67.6916 0002446 186.5130 105.7569  1.00270867  9440
BREEZE-M R/B
1 41311U 16005B   18230.21580992 -.00000156 +00000-0 +00000-0 0  9995
2 41311 012.8006 298.2257 5956125 343.0361 003.6177 02.17159190020222
